H-2A R/B                
1 28932U 06002B   26190.39748085  .00006298  00000+0  30027-3 0  9993
2 28932  98.2584 348.2433 0050453 185.7186 174.3476 15.18384851112899
RESURS-DK 1             
1 29228U 06021A   26190.24541127  .00001215  00000+0  74141-4 0  9995
2 29228  69.9328 282.4503 0006781 277.8398  82.1999 15.13306588105916
CZ-4B R/B               
1 29507U 06046C   26191.06254096  .00002898  00000+0  14433-3 0  9994
2 29507  97.5443 235.5991 0032078 200.0465 159.9511 15.17955969 78607
CZ-2C R/B               
1 31114U 07010B   26190.25116606  .00000044  00000+0  39518-4 0  9990
2 31114  98.4114 297.5248 0057908 301.3979  58.1542 14.20280908996976
COSMO-SKYMED 1          
1 31598U 07023A   26191.25979679  .00001370  00000+0  12368-3 0  9994
2 31598  97.8844  23.3108 0001071  96.7076 263.4268 14.97205201 33243
COSMOS 2428             
1 31792U 07029A   26190.51520218  .00000159  00000+0  11084-3 0  9993
2 31792  70.9381 307.5965 0007171  92.2746 267.9197 14.12931512981304
SL-16 R/B               
1 31793U 07029B   26191.22230965 -.00000075  00000+0 -14250-4 0  9998
2 31793  70.9750 274.8067 0002090 257.2336 133.5734 14.14850723982703
KORONAS-FOTON           
1 33504U 09003A   26190.79768631  .00009555  00000+0  19314-3 0  9996
2 33504  82.4294 148.6652 0012476  78.8517 281.4133 15.46211676964598
CZ-2C R/B               
1 37731U 11030B   26190.47396762  .00000807  00000+0  10763-3 0  9992
2 37731  97.8666 145.4600 0051154 315.2478 156.9019 14.81525245808128
H-2A R/B                
1 38341U 12025E   26190.56694863  .00001592  00000+0  14637-3 0  9994
2 38341  98.4848 167.5608 0042245 274.1610  85.4781 14.95827322766435
SHIJIAN-16 (SJ-16)      
1 39358U 13057A   26191.29642646  .00001812  00000+0  17818-3 0  9991
2 39358  74.9734 312.9127 0015956 176.6393 183.4906 14.92664630689791
SL-4 R/B                
1 39679U 14021B   26191.13268538  .00007771  00000+0  16183-3 0  9990
2 39679  51.6056  98.3228 0089998 189.8462 170.0762 15.42416724675155
ALOS-2                  
1 39766U 14029A   26191.26960644  .00000233  00000+0  38053-4 0  9993
2 39766  97.9221 288.1036 0001612  93.0589 267.0807 14.79473467654990
YAOGAN-29               
1 41038U 15069A   26191.31921681  .00000866  00000+0  11291-3 0  9993
2 41038  98.0027 219.9877 0001112  22.2416 337.8846 14.83106502574059
ASTRO-H (HITOMI)        
1 41337U 16012A   26191.29378425  .00001824  00000+0  10198-3 0  9993
2 41337  30.9996 284.9490 0009558 125.9572 234.1953 15.10620381570781
HXMT (HUIYAN)           
1 42758U 17034A   26191.08982712  .00003508  00000+0  17546-3 0  9998
2 42758  43.0148  55.4962 0032697 289.6082  70.1239 15.18660042501147
SAOCOM 1A               
1 43641U 18076A   26191.29213657  .00000331  00000+0  48189-4 0  9994
2 43641  97.8894  17.7052 0001495  83.1667 276.9716 14.82146120419525
H-2A R/B                
1 43682U 18084L   26191.11105830  .00016036  00000+0  32750-3 0  9997
2 43682  98.8546  75.0238 0020751 319.4603  40.5095 15.46067255424667
SAOCOM 1B               
1 46265U 20059A   26191.25586632 -.00000347  00000+0 -36972-4 0  9991
2 46265  97.8897  16.7652 0001533  81.8453 278.2934 14.82153597316900
CSS (TIANHE)            
1 48274U 21035A   26191.21519186  .00001478  00000+0  23427-4 0  9999
2 48274  41.4687 182.0167 0002669 284.9103  75.1440 15.58015945296766
COSMOS 2550             
1 48865U 21056A   26191.30341597  .00000685  00000+0  26678-4 0  9997
2 48865  67.1431  29.9813 0008463 271.0594  88.9591 15.33795487282268
CZ-2C R/B               
1 52794U 22058K   26191.00643723  .00033849  00000+0  35317-3 0  9996
2 52794  50.1859  44.6364 0030619   1.0479 359.0554 15.63552330229214
CZ-2C R/B               
1 54039U 22132E   26190.99135490  .00055194  00000+0  37901-3 0  9995
2 54039  97.2898 199.0795 0010409   4.6583 355.4777 15.74465025209532
GSLV R/B                
1 54149U 22138AN  26190.23907571  .00002182  00000+0  18439-3 0  9991
2 54149  87.3814 125.5791 0024040  71.8269 288.5577 14.97366438202118
XRISM                   
1 57800U 23137A   26191.22138521  .00002469  00000+0  13227-3 0  9997
2 57800  31.0008 210.3738 0007840 196.7310 163.3071 15.12649077156357
ACS3                    
1 59588U 24077B   26191.16291775  .00019046  00000+0  13257-1 0  9990
2 59588  97.1735 104.8549 0117764  42.7288 318.2962 13.95378034111240
SPACEMOBILE-003         
1 61045U 24163A   26191.15284552  .00000447  00000+0  34676-4 0  9997
2 61045  52.9663 203.8314 0005319 179.8371 180.2626 15.20788598101262
SPACEMOBILE-005         
1 61046U 24163B   26190.74201345  .00004552  00000+0  21851-3 0  9992
2 61046  52.9802 205.6616 0008750 178.6787 181.4232 15.20763652101195
SPACEMOBILE-001         
1 61047U 24163C   26191.06904487  .00000518  00000+0  37895-4 0  9990
2 61047  52.9749 203.8741 0007553 178.7608 181.3406 15.20815495101249
SPACEMOBILE-002         
1 61048U 24163D   26191.25016409  .00005943  00000+0  28001-3 0  9995
2 61048  52.9774 203.0799 0006595 177.9228 182.1795 15.20865625101270
